STARLINK-37043          
1 68246U 26054Q   26076.59689815 -.00003618  11440-4  00000+0 0  9997
2 68246  53.1600 274.0760 0003500 341.0800 246.2400 16.06086622    19
STARLINK-37044          
1 68247U 26054R   26076.59689815 -.00003618  11440-4  00000+0 0  9998
2 68247  53.1600 274.0760 0003500 341.0800 246.2400 16.06086622    10
STARLINK-36997          
1 68248U 26054S   26076.59689815 -.00003618  11440-4  00000+0 0  9999
2 68248  53.1600 274.0760 0003500 341.0800 246.2400 16.06086622    11
STARLINK-37141          
1 68249U 26054T   26076.59689815 -.00003618  11440-4  00000+0 0  9990
2 68249  53.1600 274.0760 0003500 341.0800 246.2400 16.06086622    12
STARLINK-37087          
1 68250U 26054U   26076.59689815 -.00003618  11440-4  00000+0 0  9992
2 68250  53.1600 274.0760 0003500 341.0800 246.2400 16.06086622    14
STARLINK-36274          
1 68251U 26054V   26076.59689815 -.00003618  11440-4  00000+0 0  9993
2 68251  53.1600 274.0760 0003500 341.0800 246.2400 16.06086622    15
STARLINK-37085          
1 68252U 26054W   26076.59689815 -.00003618  11440-4  00000+0 0  9994
2 68252  53.1600 274.0760 0003500 341.0800 246.2400 16.06086622    16
STARLINK-37086          
1 68253U 26054X   26076.59689815 -.00003618  11440-4  00000+0 0  9995
2 68253  53.1600 274.0760 0003500 341.0800 246.2400 16.06086622    17
STARLINK-37084          
1 68254U 26054Y   26076.59689815 -.00003618  11440-4  00000+0 0  9996
2 68254  53.1600 274.0760 0003500 341.0800 246.2400 16.06086622    18
STARLINK-37075          
1 68255U 26054Z   26076.59689815 -.00003618  11440-4  00000+0 0  9997
2 68255  53.1600 274.0760 0003500 341.0800 246.2400 16.06086622    19
STARLINK-36333          
1 68256U 26054AA  26076.59689815 -.00003618  11440-4  00000+0 0  9998
2 68256  53.1600 274.0760 0003500 341.0800 246.2400 16.06086622    10
STARLINK-36745          
1 68257U 26054AB  26076.59689815 -.00003618  11440-4  00000+0 0  9999
2 68257  53.1600 274.0760 0003500 341.0800 246.2400 16.06086622    11
