CCSDS_OMM_VERS = 2.0
CREATION_DATE  = 
ORIGINATOR     = 

OBJECT_NAME    = STARLINK-37043
OBJECT_ID      = 2026-054Q
CENTER_NAME    = EARTH
REF_FRAME      = TEME
TIME_SYSTEM    = UTC
MEAN_ELEMENT_THEORY = SGP/SGP4

EPOCH          = 2026-03-17T14:19:32.000160
MEAN_MOTION    = 16.06086622
ECCENTRICITY   = .00035
INCLINATION    = 53.1600
RA_OF_ASC_NODE = 274.0760
ARG_OF_PERICENTER = 341.0800
MEAN_ANOMALY   = 246.2400

EPHEMERIS_TYPE = 0
CLASSIFICATION_TYPE = U
NORAD_CAT_ID   = 68246
ELEMENT_SET_NO = 999
REV_AT_EPOCH   = 1
BSTAR          = 0
MEAN_MOTION_DOT = -.3618E-4
MEAN_MOTION_DDOT = .1143976E-4

CCSDS_OMM_VERS = 2.0
CREATION_DATE  = 
ORIGINATOR     = 

OBJECT_NAME    = STARLINK-37044
OBJECT_ID      = 2026-054R
CENTER_NAME    = EARTH
REF_FRAME      = TEME
TIME_SYSTEM    = UTC
MEAN_ELEMENT_THEORY = SGP/SGP4

EPOCH          = 2026-03-17T14:19:32.000160
MEAN_MOTION    = 16.06086622
ECCENTRICITY   = .00035
INCLINATION    = 53.1600
RA_OF_ASC_NODE = 274.0760
ARG_OF_PERICENTER = 341.0800
MEAN_ANOMALY   = 246.2400

EPHEMERIS_TYPE = 0
CLASSIFICATION_TYPE = U
NORAD_CAT_ID   = 68247
ELEMENT_SET_NO = 999
REV_AT_EPOCH   = 1
BSTAR          = 0
MEAN_MOTION_DOT = -.3618E-4
MEAN_MOTION_DDOT = .1143976E-4

CCSDS_OMM_VERS = 2.0
CREATION_DATE  = 
ORIGINATOR     = 

OBJECT_NAME    = STARLINK-36997
OBJECT_ID      = 2026-054S
CENTER_NAME    = EARTH
REF_FRAME      = TEME
TIME_SYSTEM    = UTC
MEAN_ELEMENT_THEORY = SGP/SGP4

EPOCH          = 2026-03-17T14:19:32.000160
MEAN_MOTION    = 16.06086622
ECCENTRICITY   = .00035
INCLINATION    = 53.1600
RA_OF_ASC_NODE = 274.0760
ARG_OF_PERICENTER = 341.0800
MEAN_ANOMALY   = 246.2400

EPHEMERIS_TYPE = 0
CLASSIFICATION_TYPE = U
NORAD_CAT_ID   = 68248
ELEMENT_SET_NO = 999
REV_AT_EPOCH   = 1
BSTAR          = 0
MEAN_MOTION_DOT = -.3618E-4
MEAN_MOTION_DDOT = .1143976E-4

CCSDS_OMM_VERS = 2.0
CREATION_DATE  = 
ORIGINATOR     = 

OBJECT_NAME    = STARLINK-37141
OBJECT_ID      = 2026-054T
CENTER_NAME    = EARTH
REF_FRAME      = TEME
TIME_SYSTEM    = UTC
MEAN_ELEMENT_THEORY = SGP/SGP4

EPOCH          = 2026-03-17T14:19:32.000160
MEAN_MOTION    = 16.06086622
ECCENTRICITY   = .00035
INCLINATION    = 53.1600
RA_OF_ASC_NODE = 274.0760
ARG_OF_PERICENTER = 341.0800
MEAN_ANOMALY   = 246.2400

EPHEMERIS_TYPE = 0
CLASSIFICATION_TYPE = U
NORAD_CAT_ID   = 68249
ELEMENT_SET_NO = 999
REV_AT_EPOCH   = 1
BSTAR          = 0
MEAN_MOTION_DOT = -.3618E-4
MEAN_MOTION_DDOT = .1143976E-4

CCSDS_OMM_VERS = 2.0
CREATION_DATE  = 
ORIGINATOR     = 

OBJECT_NAME    = STARLINK-37087
OBJECT_ID      = 2026-054U
CENTER_NAME    = EARTH
REF_FRAME      = TEME
TIME_SYSTEM    = UTC
MEAN_ELEMENT_THEORY = SGP/SGP4

EPOCH          = 2026-03-17T14:19:32.000160
MEAN_MOTION    = 16.06086622
ECCENTRICITY   = .00035
INCLINATION    = 53.1600
RA_OF_ASC_NODE = 274.0760
ARG_OF_PERICENTER = 341.0800
MEAN_ANOMALY   = 246.2400

EPHEMERIS_TYPE = 0
CLASSIFICATION_TYPE = U
NORAD_CAT_ID   = 68250
ELEMENT_SET_NO = 999
REV_AT_EPOCH   = 1
BSTAR          = 0
MEAN_MOTION_DOT = -.3618E-4
MEAN_MOTION_DDOT = .1143976E-4

CCSDS_OMM_VERS = 2.0
CREATION_DATE  = 
ORIGINATOR     = 

OBJECT_NAME    = STARLINK-36274
OBJECT_ID      = 2026-054V
CENTER_NAME    = EARTH
REF_FRAME      = TEME
TIME_SYSTEM    = UTC
MEAN_ELEMENT_THEORY = SGP/SGP4

EPOCH          = 2026-03-17T14:19:32.000160
MEAN_MOTION    = 16.06086622
ECCENTRICITY   = .00035
INCLINATION    = 53.1600
RA_OF_ASC_NODE = 274.0760
ARG_OF_PERICENTER = 341.0800
MEAN_ANOMALY   = 246.2400

EPHEMERIS_TYPE = 0
CLASSIFICATION_TYPE = U
NORAD_CAT_ID   = 68251
ELEMENT_SET_NO = 999
REV_AT_EPOCH   = 1
BSTAR          = 0
MEAN_MOTION_DOT = -.3618E-4
MEAN_MOTION_DDOT = .1143976E-4

CCSDS_OMM_VERS = 2.0
CREATION_DATE  = 
ORIGINATOR     = 

OBJECT_NAME    = STARLINK-37085
OBJECT_ID      = 2026-054W
CENTER_NAME    = EARTH
REF_FRAME      = TEME
TIME_SYSTEM    = UTC
MEAN_ELEMENT_THEORY = SGP/SGP4

EPOCH          = 2026-03-17T14:19:32.000160
MEAN_MOTION    = 16.06086622
ECCENTRICITY   = .00035
INCLINATION    = 53.1600
RA_OF_ASC_NODE = 274.0760
ARG_OF_PERICENTER = 341.0800
MEAN_ANOMALY   = 246.2400

EPHEMERIS_TYPE = 0
CLASSIFICATION_TYPE = U
NORAD_CAT_ID   = 68252
ELEMENT_SET_NO = 999
REV_AT_EPOCH   = 1
BSTAR          = 0
MEAN_MOTION_DOT = -.3618E-4
MEAN_MOTION_DDOT = .1143976E-4

CCSDS_OMM_VERS = 2.0
CREATION_DATE  = 
ORIGINATOR     = 

OBJECT_NAME    = STARLINK-37086
OBJECT_ID      = 2026-054X
CENTER_NAME    = EARTH
REF_FRAME      = TEME
TIME_SYSTEM    = UTC
MEAN_ELEMENT_THEORY = SGP/SGP4

EPOCH          = 2026-03-17T14:19:32.000160
MEAN_MOTION    = 16.06086622
ECCENTRICITY   = .00035
INCLINATION    = 53.1600
RA_OF_ASC_NODE = 274.0760
ARG_OF_PERICENTER = 341.0800
MEAN_ANOMALY   = 246.2400

EPHEMERIS_TYPE = 0
CLASSIFICATION_TYPE = U
NORAD_CAT_ID   = 68253
ELEMENT_SET_NO = 999
REV_AT_EPOCH   = 1
BSTAR          = 0
MEAN_MOTION_DOT = -.3618E-4
MEAN_MOTION_DDOT = .1143976E-4

CCSDS_OMM_VERS = 2.0
CREATION_DATE  = 
ORIGINATOR     = 

OBJECT_NAME    = STARLINK-37084
OBJECT_ID      = 2026-054Y
CENTER_NAME    = EARTH
REF_FRAME      = TEME
TIME_SYSTEM    = UTC
MEAN_ELEMENT_THEORY = SGP/SGP4

EPOCH          = 2026-03-17T14:19:32.000160
MEAN_MOTION    = 16.06086622
ECCENTRICITY   = .00035
INCLINATION    = 53.1600
RA_OF_ASC_NODE = 274.0760
ARG_OF_PERICENTER = 341.0800
MEAN_ANOMALY   = 246.2400

EPHEMERIS_TYPE = 0
CLASSIFICATION_TYPE = U
NORAD_CAT_ID   = 68254
ELEMENT_SET_NO = 999
REV_AT_EPOCH   = 1
BSTAR          = 0
MEAN_MOTION_DOT = -.3618E-4
MEAN_MOTION_DDOT = .1143976E-4

CCSDS_OMM_VERS = 2.0
CREATION_DATE  = 
ORIGINATOR     = 

OBJECT_NAME    = STARLINK-37075
OBJECT_ID      = 2026-054Z
CENTER_NAME    = EARTH
REF_FRAME      = TEME
TIME_SYSTEM    = UTC
MEAN_ELEMENT_THEORY = SGP/SGP4

EPOCH          = 2026-03-17T14:19:32.000160
MEAN_MOTION    = 16.06086622
ECCENTRICITY   = .00035
INCLINATION    = 53.1600
RA_OF_ASC_NODE = 274.0760
ARG_OF_PERICENTER = 341.0800
MEAN_ANOMALY   = 246.2400

EPHEMERIS_TYPE = 0
CLASSIFICATION_TYPE = U
NORAD_CAT_ID   = 68255
ELEMENT_SET_NO = 999
REV_AT_EPOCH   = 1
BSTAR          = 0
MEAN_MOTION_DOT = -.3618E-4
MEAN_MOTION_DDOT = .1143976E-4

CCSDS_OMM_VERS = 2.0
CREATION_DATE  = 
ORIGINATOR     = 

OBJECT_NAME    = STARLINK-36333
OBJECT_ID      = 2026-054AA
CENTER_NAME    = EARTH
REF_FRAME      = TEME
TIME_SYSTEM    = UTC
MEAN_ELEMENT_THEORY = SGP/SGP4

EPOCH          = 2026-03-17T14:19:32.000160
MEAN_MOTION    = 16.06086622
ECCENTRICITY   = .00035
INCLINATION    = 53.1600
RA_OF_ASC_NODE = 274.0760
ARG_OF_PERICENTER = 341.0800
MEAN_ANOMALY   = 246.2400

EPHEMERIS_TYPE = 0
CLASSIFICATION_TYPE = U
NORAD_CAT_ID   = 68256
ELEMENT_SET_NO = 999
REV_AT_EPOCH   = 1
BSTAR          = 0
MEAN_MOTION_DOT = -.3618E-4
MEAN_MOTION_DDOT = .1143976E-4

CCSDS_OMM_VERS = 2.0
CREATION_DATE  = 
ORIGINATOR     = 

OBJECT_NAME    = STARLINK-36745
OBJECT_ID      = 2026-054AB
CENTER_NAME    = EARTH
REF_FRAME      = TEME
TIME_SYSTEM    = UTC
MEAN_ELEMENT_THEORY = SGP/SGP4

EPOCH          = 2026-03-17T14:19:32.000160
MEAN_MOTION    = 16.06086622
ECCENTRICITY   = .00035
INCLINATION    = 53.1600
RA_OF_ASC_NODE = 274.0760
ARG_OF_PERICENTER = 341.0800
MEAN_ANOMALY   = 246.2400

EPHEMERIS_TYPE = 0
CLASSIFICATION_TYPE = U
NORAD_CAT_ID   = 68257
ELEMENT_SET_NO = 999
REV_AT_EPOCH   = 1
BSTAR          = 0
MEAN_MOTION_DOT = -.3618E-4
MEAN_MOTION_DDOT = .1143976E-4

